[{"OBJECT_NAME":"STARLINK-1555","OBJECT_ID":"2020-055F","EPOCH":"2026-03-10T00:00:02.999808","MEAN_MOTION":15.18621207,"ECCENTRICITY":0.00014992,"INCLINATION":53.1044,"RA_OF_ASC_NODE":124.8761,"ARG_OF_PERICENTER":67.3394,"MEAN_ANOMALY":17.678,"EPHEMERIS_TYPE":0,"CLASSIFICATION_TYPE":"U","NORAD_CAT_ID":46032,"ELEMENT_SET_NO":999,"REV_AT_EPOCH":564,"BSTAR":0.0057165525,"MEAN_MOTION_DOT":0.00121491,"MEAN_MOTION_DDOT":0},{"OBJECT_NAME":"COSMOS 252 DEB","OBJECT_ID":"1968-097D","EPOCH":"2026-03-09T22:40:32.342592","MEAN_MOTION":13.80993653,"ECCENTRICITY":0.06218464,"INCLINATION":62.2838,"RA_OF_ASC_NODE":22.8932,"ARG_OF_PERICENTER":123.8434,"MEAN_ANOMALY":242.3394,"EPHEMERIS_TYPE":0,"CLASSIFICATION_TYPE":"U","NORAD_CAT_ID":3551,"ELEMENT_SET_NO":999,"REV_AT_EPOCH":79484,"BSTAR":0.00067344756,"MEAN_MOTION_DOT":3.094e-5,"MEAN_MOTION_DDOT":0}]
